satname,norad_id,inclination_deg,eccentricity,mean_motion_rev_per_day,perigee_km,apogee_km,l1,l2
STARLINK-1319,45379,53.0544,0.000135,15.3672321,454.88428873867633,456.72945358389006,1 45379U 20019V   25312.91667823  .00064137  00000+0  17577-2 0  9994,2 45379  53.0544 347.1179 0001350  82.9298 346.5265 15.36723210  5837
STARLINK-1266,45383,53.0547,0.0001757,15.06419824,545.9340278331329,548.3675739663686,1 45383U 20019Z   25312.46703403  .00008450  00000+0  58517-3 0  9990,2 45383  53.0547 330.8098 0001757  84.5902 275.5287 15.06419824311739
STARLINK-1267,45384,53.0539,0.0001291,15.06408605,546.291125884085,548.0792440722471,1 45384U 20019AA  25312.45236801  .00004600  00000+0  32742-3 0  9998,2 45384  53.0539 331.5324 0001291  87.4569 272.6568 15.06408605311729
STARLINK-1272,45386,53.0544,0.0003923,15.34932511,458.4379219914572,463.80400378913964,1 45386U 20019AC  25312.83334676  .00104991  00000+0  30231-2 0  9995,2 45386  53.0544 325.3981 0003923  34.9832 325.1427 15.34932511311841
STARLINK-1274,45387,53.0352,0.0003423,15.29921855,473.6994993390863,478.3918728059716,1 45387U 20019AD  25312.30046498  .00087281  00000+0  29493-2 0  9990,2 45387  53.0352 315.5355 0003423 315.0694  45.0027 15.29921855311936
STARLINK-1280,45388,53.0543,0.0004188,15.40654021,441.3206946563341,447.03506559993093,1 45388U 20019AE  25312.91667823  .00139131  00000+0  33097-2 0  9996,2 45388  53.0543 344.1663 0004188  19.4373 199.7366 15.40654021  5706
STARLINK-1283,45389,53.0525,0.0005482,15.31337696,468.06507098031216,475.5753640736102,1 45389U 20019AF  25312.75743973  .00098490  00000+0  31783-2 0  9992,2 45389  53.0525 324.5513 0005482  28.7283 331.4018 15.31337696311855
STARLINK-1284,45390,53.0553,0.000137,15.06413811,546.2204625823761,548.117996489269,1 45390U 20019AG  25312.33802257  .00007784  00000+0  54067-3 0  9996,2 45390  53.0553 331.3900 0001370  86.9503 273.1643 15.06413811311714
STARLINK-1292,45394,53.0407,0.0005127,16.07088418,251.44185455300067,258.24331181759953,1 45394U 20019AL  25314.88942911  .00856381  40021-3  10720-2 0  9997,2 45394  53.0407 262.9883 0005127  83.4364 276.7252 16.07088418312636
STARLINK-1297,45395,53.0547,0.0001423,15.06398477,546.2307479538376,548.2017034818782,1 45395U 20019AM  25312.37489418  .00004561  00000+0  32488-3 0  9998,2 45395  53.0547 331.2215 0001423  91.3432 268.7720 15.06398477310906
STARLINK-1307,45397,53.0543,0.000167,15.06384944,546.1011618787843,548.4142437095188,1 45397U 20019AP  25312.36753580  .00000964  00000+0  83647-4 0  9990,2 45397  53.0543 331.2522 0001670  83.5243 276.5936 15.06384944311543
STARLINK-1255,45399,53.0484,0.0003542,15.31290152,469.5356982085632,474.38830834248347,1 45399U 20019AR  25312.30906381  .00091549  00000+0  29629-2 0  9992,2 45399  53.0484 317.7292 0003542  40.9171 319.2095 15.31290152311714
STARLINK-1260,45404,53.054,0.0001411,15.06412028,546.1975326158763,548.1518555759494,1 45404U 20019AW  25312.30208695  .00005145  00000+0  36394-3 0  9997,2 45404  53.0540 321.5464 0001411  89.2012 270.9139 15.06412028311566
STARLINK-1263,45405,53.0541,0.0001365,15.06404674,546.2519247157152,548.1425409612793,1 45405U 20019AX  25312.75176832  .00003448  00000+0  25025-3 0  9997,2 45405  53.0541 319.5316 0001365  81.6832 278.4312 15.06404674311637
STARLINK-1265,45406,53.0551,0.0001356,15.06395095,546.287511794666,548.1656704005718,1 45406U 20019AY  25312.82548664 -.00002210  00000+0 -12954-3 0  9997,2 45406  53.0551 319.2007 0001356  70.0601 290.0534 15.06395095311642
STARLINK-1278,45408,53.0544,0.0003473,15.3408517,461.26299248686973,466.0152901946449,1 45408U 20019BA  25312.37003854  .00073238  00000+0  21789-2 0  9997,2 45408  53.0544 347.5483 0003473  16.2013 343.9098 15.34085170311216
STARLINK-1296,45412,53.0539,0.0001578,15.06404134,546.1060698495548,548.2917058557614,1 45412U 20019BE  25312.82917109  .00001378  00000+0  11136-3 0  9991,2 45412  53.0539 319.1824 0001578  90.4799 269.6371 15.06404134311647
STARLINK-1298,45413,53.0486,0.0008888,15.54238279,398.339472340107,410.3960528060579,1 45413U 20019BF  25312.68029799  .00056776  00000+0  85518-3 0  9992,2 45413  53.0486 293.2402 0008888 351.2597   8.8257 15.54238279312092
STARLINK-1309,45414,53.055,0.0001332,15.06413887,546.246545851588,548.0914473690855,1 45414U 20019BG  25312.31314028  .00003518  00000+0  25489-3 0  9992,2 45414  53.0550 321.5002 0001332  85.6965 274.4176 15.06413887311558
STARLINK-1316,45415,53.0545,0.0001404,15.06407859,546.2151557841225,548.159786895676,1 45415U 20019BH  25312.33894319  .00002207  00000+0  16698-3 0  9997,2 45415  53.0545 321.3813 0001404  78.9125 281.2022 15.06407859311596
STARLINK-1318,45416,53.0508,0.000567,15.61308775,380.04151706014363,387.70963932381255,1 45416U 20019BJ  25312.62829052  .00079021  00000+0  90945-3 0  9997,2 45416  53.0508 284.5849 0005670  62.3524 297.8064 15.61308775312121
STARLINK-1286,45417,53.0538,0.0001939,15.36414187,455.397913712879,458.04847249576414,1 45417U 20019BK  25312.52757623  .00104512  00000+0  28707-2 0  9991,2 45417  53.0538 347.2184 0001939  44.1547 315.9610 15.36414187311508
STARLINK-1308,45419,53.0538,0.0001307,15.064046,546.2923184227993,548.1026008505487,1 45419U 20019BM  25312.83748149  .00008364  00000+0  57964-3 0  9996,2 45419  53.0538 349.1446 0001307  84.6138 275.5000 15.06404600311258
STARLINK-1329,45531,53.054,0.0001284,15.06398173,546.3279419619857,548.106372909615,1 45531U 20025A   25312.67344494  .00001659  00000+0  13027-3 0  9997,2 45531  53.0540 289.8815 0001284  94.1557 265.9578 15.06398173306851
STARLINK-1338,45532,53.0557,0.0001625,15.06411771,546.0501184752438,548.3008450318139,1 45532U 20025B   25312.22006831  .00002400  00000+0  17992-3 0  9999,2 45532  53.0557 291.9125 0001625  90.8986 269.2189 15.06411771306783
STARLINK-1350,45535,53.0726,0.0002239,15.32552123,466.66814285163036,469.7339330250197,1 45535U 20025E   25312.76811619  .00019382  00000+0  61806-3 0  9999,2 45535  53.0726 239.5412 0002239  76.7071 283.4179 15.32552123307594
STARLINK-1362,45538,53.0559,0.0001608,15.0639027,546.1277783040496,548.3549799907832,1 45538U 20025H   25312.25227131  .00000766  00000+0  70311-4 0  9994,2 45538  53.0559 291.4915 0001608  95.7228 264.3944 15.06390270306793
STARLINK-1368,45540,53.0555,0.0001402,15.06397114,546.2494680188211,548.1913382346575,1 45540U 20025K   25312.25693313  .00004035  00000+0  28966-3 0  9997,2 45540  53.0555 291.7524 0001402  97.6804 262.4344 15.06397114306780
STARLINK-1371,45542,53.055,0.0001407,15.064059,546.2190813491698,548.167869344933,1 45542U 20025M   25312.22744046  .00000884  00000+0  78193-4 0  9992,2 45542  53.0550 291.8823 0001407  88.8183 271.2968 15.06405900306780
STARLINK-1372,45543,53.0555,0.0001607,15.06409707,546.0689088087265,548.2947062734693,1 45543U 20025N   25312.26429973  .00002983  00000+0  21904-3 0  9995,2 45543  53.0555 291.7196 0001607  94.3311 265.7861 15.06409707305884
STARLINK-1373,45544,53.0544,0.0001386,15.06401726,546.2464154249737,548.166120578865,1 45544U 20025P   25312.68081345  .00001848  00000+0  14291-3 0  9999,2 45544  53.0544 289.8465 0001386  91.0567 269.0581 15.06401726306858
STARLINK-1294,45551,53.0479,0.0007831,15.611651,378.9947897247912,389.5861035917478,1 45551U 20025W   25312.75762097  .00106284  00000+0  12230-2 0  9995,2 45551  53.0479 219.4584 0007831  82.4288 277.7614 15.61165100307857
STARLINK-1325,45554,53.0542,0.0002198,15.6374964,375.35242913665206,378.3219157828644,1 45554U 20025Z   25312.91667823  .00188991  00000+0  19448-2 0  9990,2 45554  53.0542 211.5181 0002198 159.2476 248.6660 15.63749640  5986
STARLINK-1327,45555,53.0547,0.0001287,15.06380795,546.3791191877581,548.1617190574407,1 45555U 20025AA  25312.18874538  .00005965  00000+0  41919-3 0  9991,2 45555  53.0547 272.0565 0001287  86.9417 273.1719 15.06380795307059
STARLINK-1356,45564,53.0541,0.0001241,15.06382899,546.4045282756733,548.1234127965599,1 45564U 20025AK  25312.59051888  .00011644  00000+0  79968-3 0  9997,2 45564  53.0541 270.2522 0001241  88.8329 271.2802 15.06382899307115
STARLINK-1357,45565,53.0604,0.0008704,15.34030088,457.84769304973634,469.7581420582146,1 45565U 20025AL  25312.91667823  .00092045  00000+0  27311-2 0  9994,2 45565  53.0604 252.2669 0008704  42.7905 229.7279 15.34030088  5918
STARLINK-1361,45567,53.0544,0.0001464,15.06377804,546.2657053285329,548.2934673050058,1 45567U 20025AN  25312.60893779  .00010607  00000+0  73034-3 0  9991,2 45567  53.0544 270.1680 0001464  80.6823 279.4332 15.06377804307120
STARLINK-1363,45568,53.0534,0.0004333,15.43018152,434.2544833763068,440.1606609825576,1 45568U 20025AP  25312.91667823  .00134366  00000+0  29563-2 0  9991,2 45568  53.0534 264.3120 0004333  98.1246 308.0588 15.43018152  5794
STARLINK-1366,45569,53.0529,0.0004461,15.41655983,438.1794450083826,444.2636767163849,1 45569U 20025AQ  25312.91667823  .00130595  00000+0  30089-2 0  9997,2 45569  53.0529 263.8396 0004461  92.3593 131.0917 15.41655983  5710
STARLINK-1376,45570,53.0547,0.0001525,15.06389386,546.1879678945897,548.3002091265862,1 45570U 20025AR  25312.87064539 -.00000359  00000+0 -52310-5 0  9999,2 45570  53.0547 268.9972 0001525  91.3964 268.7199 15.06389386307152
STARLINK-1320,45572,53.0563,0.0009937,15.44037886,427.43709579857205,440.97594731331264,1 45572U 20025AT  25312.75007200  .00109063  00000+0  23248-2 0  9995,2 45572  53.0563 210.7457 0009937  54.0508 306.1418 15.44037886307989
STARLINK-1321,45573,53.0545,0.0001504,15.06402355,546.1627688742956,548.2459115494321,1 45573U 20025AU  25312.59142963  .00001654  00000+0  12988-3 0  9991,2 45573  53.0545 260.2477 0001504  91.2326 268.8835 15.06402355306953
STARLINK-1328,45576,53.0547,0.00115,15.71644339,346.4549064913617,361.93927489996076,1 45576U 20025AX  25312.91667823  .00173217  00000+0  12916-2 0  9992,2 45576  53.0547 231.2960 0011500  74.0007 236.0821 15.71644339  5955
